CUBEBUG-2 (LO-74)       
1 39440U 13066AA  26200.28076766  .00001916  00000+0  18028-3 0  9996
2 39440  97.8920 149.4029 0055561 281.5253  77.9731 14.93983583681781
FUNCUBE-1 (AO-73)       
1 39444U 13066AE  26200.20282202  .00004294  00000+0  26517-3 0  9990
2 39444  97.8299 172.3289 0037989  94.6504 265.9065 15.09850419684492
UWE-3                   
1 39446U 13066AG  26200.29678307  .00002143  00000+0  18642-3 0  9997
2 39446  97.8722 156.5949 0047645 210.4063 149.4394 14.97216256682388
UNISAT-6                
1 40012U 14033C   26200.00078251  .00001017  00000+0  11402-3 0  9990
2 40012  97.7915 352.1617 0043864 324.9894  34.8441 14.88375092650895
DUCHIFAT-1              
1 40021U 14033M   26200.11833129  .00096187  00000+0  73779-3 0  9992
2 40021  98.0414 263.9486 0003298 230.7218 129.3750 15.71786235660754
QB50P1                  
1 40025U 14033R   26200.30727439  .00004287  00000+0  21014-3 0  9998
2 40025  98.0971 213.7167 0010507 112.7163 247.5182 15.18701826657903
LILACSAT-2              
1 40908U 15049K   26200.25253353  .00010901  00000+0  17969-3 0  9993
2 40908  97.4624 238.3300 0008578 129.7377 230.4632 15.52449553600726
FOX-1A (AO-85)          
1 40967U 15058D   26200.21156614  .00001675  00000+0  15786-3 0  9999
2 40967  64.7726 179.4497 0132692  44.2902 316.8736 14.91102753118349
CAS-2T & KS-1Q          
1 41847U 16066G   26200.16787261  .00000423  00000+0  68011-4 0  9999
2 41847  98.3811 275.5381 0342043  32.7227 329.4655 14.44774518509414
RADFXSAT (FOX-1B)       
1 43017U 17073E   26200.15318566  .00003216  00000+0  14197-3 0  9994
2 43017  97.4661  66.7165 0148382 217.6683 141.4086 15.13092374470224
DIWATA-2B               
1 43678U 18084H   26200.24525487  .00000992  00000+0  83668-4 0  9990
2 43678  98.1214  37.8577 0012627  71.9781 288.2816 15.00571738421024
ES'HAIL 2               
1 43700U 18090A   26200.26900825  .00000139  00000+0  00000+0 0  9995
2 43700   0.0181  77.8686 0002389  79.9954 261.8224  1.00273385 27994
FOX-1CLIFF (AO-95)      
1 43770U 18099N   26200.12101160  .00006021  00000+0  22763-3 0  9991
2 43770  97.4363 260.2606 0007552 223.6290 136.4353 15.27321019418098
ITASAT                  
1 43786U 18099AE  26200.09749375  .00003335  00000+0  16054-3 0  9991
2 43786  97.4008 250.9769 0011115 234.9585 125.0608 15.19408070417752
JY1SAT (JO-97)          
1 43803U 18099AX  26200.12106041  .00009568  00000+0  28756-3 0  9998
2 43803  97.4105 263.0849 0007161 146.3661 213.8038 15.34595342418526
UWE-4                   
1 43880U 18111E   26199.77857816  .00018634  00000+0  35827-3 0  9990
2 43880  97.5834 129.6699 0006675 180.9155 179.2083 15.47960214415667
TIANYAN 01              
1 44881U 19093C   26200.28693081  .00000634  00000+0  77459-4 0  9992
2 44881  97.7514 271.7344 0013154 347.8970  12.1928 14.86564062356188
RS-44 & BREEZE-KM R/B   
1 44909U 19096E   26200.29372393  .00000018  00000+0  20885-4 0  9994
2 44909  82.5244 318.3715 0218464  69.4639 292.9757 12.79748904306453
SALSAT                  
1 46495U 20068K   26200.25708758  .00003822  00000+0  13357-3 0  9992
2 46495  97.8864 205.2860 0009659 178.4698 181.6573 15.30204681320261
XW-3 (CAS-9)            
1 50466U 21131B   26200.26478516  .00000242  00000+0  88284-4 0  9999
2 50466  98.4987 292.4815 0004316  19.9345 340.2012 14.41383828239732
GREENCUBE (IO-117)      
1 53109U 22080E   26200.24539926 -.00000003  00000+0  00000+0 0  9992
2 53109  70.1403 287.0980 0009085 282.5487  77.4156  6.42583325 94121
UMKA 1 (RS40S)          
1 57172U 23091G   26200.26438778  .00002874  00000+0  13201-3 0  9992
2 57172  97.5029 258.8423 0012630  15.8843 344.2786 15.21146067168887
CUBESX-HSE 3 (RS42S)    
1 57178U 23091N   26200.25225674  .00006833  00000+0  22391-3 0  9995
2 57178  97.5068 266.2591 0009248 346.7992  13.3005 15.31941640169337
MONITOR-3 (RS58S)       
1 57180U 23091Q   26200.28366395  .00004924  00000+0  18053-3 0  9996
2 57180  97.5061 263.9758 0010556 355.0239   5.0894 15.28416418169197
MONITOR-4 (RS57S)       
1 57182U 23091S   26200.26092866  .00005253  00000+0  19190-3 0  9994
2 57182  97.5055 263.9258 0010551 355.4623   4.6519 15.28503772169192
MONITOR-2 (RS39S)       
1 57184U 23091U   26200.26075525  .00002250  00000+0  11018-3 0  9994
2 57184  97.5051 258.3388 0010984  10.3798 349.7661 15.19174184168823
SVYATOBOR 1 (RS60S)     
1 57187U 23091X   26200.17154384  .00004321  00000+0  16531-3 0  9994
2 57187  97.5067 264.1737 0008338 349.9971  10.1101 15.27099587169191
VIZARD-METEO (RS38S)    
1 57189U 23091Z   26200.25376684  .00008725  00000+0  24367-3 0  9992
2 57189  97.5069 270.4015 0005345 321.8867  38.1998 15.36948727169612
POLYTECH-UNIVERSE 3 (R*)
1 57191U 23091AB  26200.28356743  .00002317  00000+0  11247-3 0  9996
2 57191  97.5026 257.8656 0015677  24.0470 336.1493 15.19387396168822
UTMN 2 (RS27S)          
1 57203U 23091AP  26200.25259438  .00006360  00000+0  20351-3 0  9998
2 57203  97.5065 267.9321 0006354 334.0489  26.0434 15.32757000169454
